ONEWEB-0306             
1 49188U 21083C   23345.88679165  .00000180  00000+0  42326-3 0  9999
2 49188  87.9201 158.1359 0001421  81.2380 278.8913 13.18687163108990
ONEWEB-0307             
1 49189U 21083D   23345.91479894 -.00000001  00000+0 -37536-4 0  9993
2 49189  87.8994 142.9981 0001594 100.8121 259.3187 13.13468008110386
ONEWEB-0320             
1 49190U 21083E   23345.89311469  .00000084  00000+0  18142-3 0  9995
2 49190  87.9142 158.1578 0001569  93.6089 266.5222 13.18685479108957
ONEWEB-0321             
1 49191U 21083F   23345.87723401  .00000042  00000+0  71437-4 0  9998
2 49191  87.9189  97.2439 0001501 119.6361 240.4922 13.20872285115611
ONEWEB-0322             
1 49192U 21083G   23345.91004054  .00000063  00000+0  13818-3 0  9991
2 49192  87.8993 142.9875 0001649 116.1542 243.9756 13.13472764110373
ONEWEB-0324             
1 49193U 21083H   23345.87835770  .00000083  00000+0  17706-3 0  9996
2 49193  87.9207 158.1418 0001956  96.3642 263.7713 13.18683768108975
ONEWEB-0325             
1 49194U 21083J   23345.88258137  .00000136  00000+0  31146-3 0  9997
2 49194  87.9189 158.1585 0001446  90.7931 269.3367 13.18690141108984
ONEWEB-0326             
1 49195U 21083K   23345.89733784  .00000045  00000+0  82360-4 0  9999
2 49195  87.9211 158.1527 0001902  74.8821 285.2521 13.18685349108977
